*******************************************************************************
JPL/HORIZONS            7968 Elst-Pizarro (1996 NU5)       2023-Sep-21 12:17:24
Rec #:    7968 (+COV) Soln.date: 2023-Jul-25_16:27:03    # obs: 918 (1979-2023)
 
IAU76/J2000 helio. ecliptic osc. elements (au, days, deg., period=Julian yrs):
 
  EPOCH=  2457415.5 ! 2016-Jan-28.00 (TDB)         Residual RMS= .23861
   EC= .1605868299902575   QR= 2.652587179549002   TP= 2458382.4575427612
   OM= 160.1372251160037   W=  131.9672800177516   IN= 1.387283205120364
   A= 3.160049513540769    MA= 190.3434434012514   ADIST= 3.667511847532537
   PER= 5.61758            N= .175453987           ANGMOM= .030182492
   DAN= 3.44892            DDN= 2.78002            L= 292.1128565
   B= 1.0314372            MOID= 1.63750005        TP= 2018-Sep-20.9575427612
 
Asteroid physical parameters (km, seconds, rotational period in hours):
   GM= n.a.                RAD= 1.6                ROTPER= 3.471
   H= 15.6                 G= .150                 B-V= n.a.
                           ALBEDO= .060            STYP= n.a.

ASTEROID comments: 
1: soln ref.= JPL#71, OCC=0
2: source=ORB
*******************************************************************************


*******************************************************************************
Ephemeris / WWW_USER Thu Sep 21 12:17:25 2023 Pasadena, USA      / Horizons    
*******************************************************************************
Target body name: 7968 Elst-Pizarro (1996 NU5)    {source: JPL#71}
Center body name: Earth (399)                     {source: DE441}
Center-site name: Royal Obs.,Blackford Hill,Edinburgh
*******************************************************************************
Start time      : A.D. 1973-Jul-10 23:44:00.0000 UT      
Stop  time      : A.D. 2002-Nov-11 06:21:00.0000 UT      
Step-size       : 1440 minutes
*******************************************************************************
Target pole/equ : undefined
Target radii    : 1.6 km                                                       
Center geodetic : 356.8175, 55.9249145, .118735   {E-lon(deg),Lat(deg),Alt(km)}
Center cylindric: 356.8175,3581.83678,5259.86113  {E-lon(deg),Dxy(km),Dz(km)}
Center pole/equ : ITRF93                          {East-longitude positive}
Center radii    : 6378.137, 6378.137, 6356.752 km {Equator_a, b, pole_c}       
Target primary  : Sun
Vis. interferer : MOON (R_eq= 1737.400) km        {source: DE441}
Rel. light bend : Sun                             {source: DE441}
Rel. lght bnd GM: 1.3271E+11 km^3/s^2                                          
Small-body perts: Yes                             {source: SB441-N16}
Atmos refraction: NO (AIRLESS)
RA format       : HMS
Time format     : CAL 
Calendar mode   : Mixed Julian/Gregorian
EOP file        : eop.230919.p231213                                           
EOP coverage    : DATA-BASED 1962-JAN-20 TO 2023-SEP-19. PREDICTS-> 2023-DEC-12
Units conversion: 1 au= 149597870.700 km, c= 299792.458 km/s, 1 day= 86400.0 s 
Table cut-offs 1: Elevation (-90.0deg=NO ),Airmass (>38.000=NO), Daylight (NO )
Table cut-offs 2: Solar elongation (  0.0,180.0=NO ),Local Hour Angle( 0.0=NO )
Table cut-offs 3: RA/DEC angular rate (     0.0=NO )                           
*******************************************************************************
Initial IAU76/J2000 heliocentric ecliptic osculating elements (au, days, deg.):
  EPOCH=  2457415.5 ! 2016-Jan-28.00 (TDB)         Residual RMS= .23861        
   EC= .1605868299902575   QR= 2.652587179549002   TP= 2458382.4575427612      
   OM= 160.1372251160037   W=  131.9672800177516   IN= 1.387283205120364       
  Equivalent ICRF heliocentric cartesian coordinates (au, au/d):
   X=-1.813876396662261E+00  Y= 2.940443233690620E+00  Z= 1.212162154354051E+00
  VX=-7.057468274575619E-03 VY=-3.972193363579735E-03 VZ=-1.553053071443667E-03
Asteroid physical parameters (km, seconds, rotational period in hours):        
   GM= n.a.                RAD= 1.6                ROTPER= 3.471               
   H= 15.6                 G= .150                 B-V= n.a.                   
                           ALBEDO= .060            STYP= n.a.                  
******************************************************************************************************************************************************************************
 Date__(UT)__HR:MN     R.A.__(FK4/B1950)___DEC    APmag   S-brt             delta      deldot     S-O-T /r     S-T-O  Sky_motion  Sky_mot_PA  RelVel-ANG  Lun_Sky_Brt  sky_SNR
******************************************************************************************************************************************************************************
$$SOE
 2001-Jul-20 23:44 A   16 09 26.84 -19 07 12.9   20.134   6.609  1.95931103933872  16.5773161  126.3865 /T   17.7023   0.0360132   148.11383   87.054634         n.a.     n.a.
 2001-Jul-21 23:44 A   16 09 30.29 -19 08 03.2   20.151   6.615  1.96884451075466  16.8055128  125.4483 /T   17.9250   0.0482088   134.00385   86.094443         n.a.     n.a.
 2001-Jul-22 23:44 A   16 09 35.30 -19 08 57.9   20.168   6.620  1.97850617164896  17.0265655  124.5162 /T   18.1416   0.0620753   125.87684   85.016870         n.a.     n.a.
 2001-Jul-23 23:44 A   16 09 41.88 -19 09 56.8   20.185   6.626  1.98829193914709  17.2404932  123.5903 /T   18.3521   0.0766712   120.78091   83.899209         n.a.     n.a.
 2001-Jul-24 23:44 A   16 09 50.02 -19 10 59.9   20.202   6.631  1.99819776731004  17.4474032  122.6704 /T   18.5564   0.0916021   117.33268   82.772799         n.a.     n.a.
 2001-Jul-25 23:44 A   16 09 59.71 -19 12 07.2   20.219   6.636  2.00821969291220  17.6474710  121.7567 /T   18.7547   0.1066796   114.85639   81.651854         n.a.     n.a.
 2001-Jul-26 23:44 A   16 10 10.95 -19 13 18.6   20.235   6.641  2.01835386645867  17.8409113  120.8490 /T   18.9470   0.1218022   112.99425   80.543404         n.a.     n.a.
 2001-Jul-27 23:44 A   16 10 23.73 -19 14 34.1   20.252   6.646  2.02859656725905  18.0279528  119.9472 /T   19.1333   0.1369105   111.54214   79.451091         n.a.     n.a.
 2001-Jul-28 23:44 Am  16 10 38.03 -19 15 53.5   20.268   6.651  2.03894420598755  18.2088206  119.0515 /T   19.3137   0.1519673   110.37615   78.376797        2.283    2.913
 2001-Jul-29 23:44 Am  16 10 53.84 -19 17 16.8   20.284   6.655  2.04939331959564  18.3837272  118.1616 /T   19.4882   0.1669483   109.41708   77.321430        2.906    2.290
 2001-Jul-30 23:44 Am  16 11 11.16 -19 18 44.0   20.300   6.659  2.05994056263989  18.5528683  117.2775 /T   19.6569   0.1818369   108.61210   76.285328        2.767    2.407
 2001-Jul-31 23:44 Am  16 11 29.96 -19 20 14.8   20.316   6.663  2.07058269750614  18.7164229  116.3991 /T   19.8197   0.1966216   107.92473   75.268488         n.a.     n.a.
 2001-Aug-01 23:44 Am  16 11 50.25 -19 21 49.4   20.331   6.667  2.08131658462043  18.8745531  115.5265 /T   19.9769   0.2112943   107.32899   74.270692         n.a.     n.a.
 2001-Aug-02 23:44 Am  16 12 12.00 -19 23 27.5   20.347   6.671  2.09213917288687  19.0274045  114.6594 /T   20.1283   0.2258494   106.80591   73.291584         n.a.     n.a.
 2001-Aug-03 23:44 Am  16 12 35.21 -19 25 09.1   20.362   6.675  2.10304749025663  19.1751067  113.7978 /T   20.2741   0.2402828   106.34131   72.330720         n.a.     n.a.
 2001-Aug-04 23:44 Am  16 12 59.86 -19 26 54.0   20.377   6.678  2.11403863433967  19.3177728  112.9417 /T   20.4143   0.2545918   105.92441   71.387599         n.a.     n.a.
 2001-Aug-05 23:44 Am  16 13 25.94 -19 28 42.3   20.392   6.681  2.12510976312758  19.4555004  112.0910 /T   20.5490   0.2687747   105.54686   70.461689         n.a.     n.a.
 2001-Aug-06 23:44 Am  16 13 53.44 -19 30 33.8   20.407   6.684  2.13625808603405  19.5883717  111.2456 /T   20.6783   0.2828303   105.20209   69.552438         n.a.     n.a.
 2001-Aug-07 23:44 Am  16 14 22.35 -19 32 28.5   20.422   6.687  2.14748085547651  19.7164552  110.4053 /T   20.8021   0.2967580   104.88487   68.659286         n.a.     n.a.
 2001-Aug-08 23:44 Am  16 14 52.65 -19 34 26.1   20.436   6.690  2.15877535907512  19.8398060  109.5703 /T   20.9205   0.3105576   104.59099   67.781674         n.a.     n.a.
 2001-Aug-09 23:44  m  16 15 24.34 -19 36 26.8   20.451   6.692  2.17013891226022  19.9584667  108.7403 /T   21.0336   0.3242292   104.31702   66.919041         n.a.     n.a.
 2001-Aug-10 23:44  m  16 15 57.39 -19 38 30.2   20.465   6.695  2.18156885071896  20.0724663  107.9153 /T   21.1415   0.3377732   104.06013   66.070825         n.a.     n.a.
 2001-Aug-11 23:44  m  16 16 31.81 -19 40 36.5   20.479   6.697  2.19306252176694  20.1818171  107.0953 /T   21.2442   0.3511903   103.81796   65.236464         n.a.     n.a.
 2001-Aug-12 23:44  m  16 17 07.57 -19 42 45.4   20.493   6.699  2.20461727352295  20.2865102  106.2802 /T   21.3416   0.3644814   103.58857   64.415384         n.a.     n.a.
 2001-Aug-13 23:44  m  16 17 44.68 -19 44 57.0   20.506   6.701  2.21623044088100  20.3865093  105.4699 /T   21.4340   0.3776474   103.37028   63.607013         n.a.     n.a.
 2001-Aug-14 23:44     16 18 23.10 -19 47 11.0   20.520   6.703  2.22789932799056  20.4817451  104.6644 /T   21.5213   0.3906886   103.16172   62.810788         n.a.     n.a.
 2001-Aug-15 23:44     16 19 02.84 -19 49 27.4   20.533   6.705  2.23962118857853  20.5721145  103.8635 /T   21.6036   0.4036045   102.96166   62.026186         n.a.     n.a.
 2001-Aug-16 23:44     16 19 43.89 -19 51 46.1   20.547   6.706  2.25139320802725  20.6574881  103.0674 /T   21.6809   0.4163927   102.76909   61.252768         n.a.     n.a.
 2001-Aug-17 23:44     16 20 26.23 -19 54 07.1   20.560   6.708  2.26321249391071  20.7377321  102.2759 /T   21.7533   0.4290487   102.58308   60.490230         n.a.     n.a.
